<?xml version="1.0" encoding="UTF-8"?>
<ndm xmlns:xsi="http://www.w3.org/2001/XMLSchema-instance" xsi:noNamespaceSchemaLocation="https://sanaregistry.org/r/ndmxml_unqualified/ndmxml-2.0.0-master-2.0.xsd">
<omm id="CCSDS_OMM_VERS" version="2.0">
<header><CREATION_DATE/><ORIGINATOR/></header><body><segment><metadata><OBJECT_NAME>KUIPER-00044</OBJECT_NAME><OBJECT_ID>2025-134F</OBJECT_ID><CENTER_NAME>EARTH</CENTER_NAME><REF_FRAME>TEME</REF_FRAME><TIME_SYSTEM>UTC</TIME_SYSTEM><MEAN_ELEMENT_THEORY>SGP4</MEAN_ELEMENT_THEORY></metadata><data><meanElements><EPOCH>2025-07-27T14:00:01.999872</EPOCH><MEAN_MOTION>15.18115475</MEAN_MOTION><ECCENTRICITY>.0011061</ECCENTRICITY><INCLINATION>51.8713</INCLINATION><RA_OF_ASC_NODE>167.5259</RA_OF_ASC_NODE><ARG_OF_PERICENTER>237.6770</ARG_OF_PERICENTER><MEAN_ANOMALY>74.2862</MEAN_ANOMALY></meanElements><tleParameters><EPHEMERIS_TYPE>0</EPHEMERIS_TYPE><CLASSIFICATION_TYPE>U</CLASSIFICATION_TYPE><NORAD_CAT_ID>64505</NORAD_CAT_ID><ELEMENT_SET_NO>999</ELEMENT_SET_NO><REV_AT_EPOCH>599</REV_AT_EPOCH><BSTAR>-.34106E-1</BSTAR><MEAN_MOTION_DOT>-.655459E-2</MEAN_MOTION_DOT><MEAN_MOTION_DDOT>0</MEAN_MOTION_DDOT></tleParameters></data></segment></body></omm>
<omm id="CCSDS_OMM_VERS" version="2.0">
<header><CREATION_DATE/><ORIGINATOR/></header><body><segment><metadata><OBJECT_NAME>KUIPER-00046</OBJECT_NAME><OBJECT_ID>2025-134G</OBJECT_ID><CENTER_NAME>EARTH</CENTER_NAME><REF_FRAME>TEME</REF_FRAME><TIME_SYSTEM>UTC</TIME_SYSTEM><MEAN_ELEMENT_THEORY>SGP4</MEAN_ELEMENT_THEORY></metadata><data><meanElements><EPOCH>2025-07-27T06:00:02.000160</EPOCH><MEAN_MOTION>15.27676644</MEAN_MOTION><ECCENTRICITY>.0007552</ECCENTRICITY><INCLINATION>51.8722</INCLINATION><RA_OF_ASC_NODE>168.4796</RA_OF_ASC_NODE><ARG_OF_PERICENTER>246.3060</ARG_OF_PERICENTER><MEAN_ANOMALY>343.6254</MEAN_ANOMALY></meanElements><tleParameters><EPHEMERIS_TYPE>0</EPHEMERIS_TYPE><CLASSIFICATION_TYPE>U</CLASSIFICATION_TYPE><NORAD_CAT_ID>64506</NORAD_CAT_ID><ELEMENT_SET_NO>999</ELEMENT_SET_NO><REV_AT_EPOCH>596</REV_AT_EPOCH><BSTAR>-.19347E-1</BSTAR><MEAN_MOTION_DOT>-.497735E-2</MEAN_MOTION_DOT><MEAN_MOTION_DDOT>0</MEAN_MOTION_DDOT></tleParameters></data></segment></body></omm>
<omm id="CCSDS_OMM_VERS" version="2.0">
<header><CREATION_DATE/><ORIGINATOR/></header><body><segment><metadata><OBJECT_NAME>KUIPER-00047</OBJECT_NAME><OBJECT_ID>2025-134H</OBJECT_ID><CENTER_NAME>EARTH</CENTER_NAME><REF_FRAME>TEME</REF_FRAME><TIME_SYSTEM>UTC</TIME_SYSTEM><MEAN_ELEMENT_THEORY>SGP4</MEAN_ELEMENT_THEORY></metadata><data><meanElements><EPOCH>2025-07-27T04:45:19.066176</EPOCH><MEAN_MOTION>15.34269644</MEAN_MOTION><ECCENTRICITY>.0009949</ECCENTRICITY><INCLINATION>51.8629</INCLINATION><RA_OF_ASC_NODE>168.5934</RA_OF_ASC_NODE><ARG_OF_PERICENTER>247.7596</ARG_OF_PERICENTER><MEAN_ANOMALY>112.2335</MEAN_ANOMALY></meanElements><tleParameters><EPHEMERIS_TYPE>0</EPHEMERIS_TYPE><CLASSIFICATION_TYPE>U</CLASSIFICATION_TYPE><NORAD_CAT_ID>64507</NORAD_CAT_ID><ELEMENT_SET_NO>999</ELEMENT_SET_NO><REV_AT_EPOCH>596</REV_AT_EPOCH><BSTAR>.80759E-3</BSTAR><MEAN_MOTION_DOT>.26956E-3</MEAN_MOTION_DOT><MEAN_MOTION_DDOT>0</MEAN_MOTION_DDOT></tleParameters></data></segment></body></omm>
<omm id="CCSDS_OMM_VERS" version="2.0">
<header><CREATION_DATE/><ORIGINATOR/></header><body><segment><metadata><OBJECT_NAME>KUIPER-00048</OBJECT_NAME><OBJECT_ID>2025-134J</OBJECT_ID><CENTER_NAME>EARTH</CENTER_NAME><REF_FRAME>TEME</REF_FRAME><TIME_SYSTEM>UTC</TIME_SYSTEM><MEAN_ELEMENT_THEORY>SGP4</MEAN_ELEMENT_THEORY></metadata><data><meanElements><EPOCH>2025-07-27T06:50:32.638272</EPOCH><MEAN_MOTION>15.36370248</MEAN_MOTION><ECCENTRICITY>.0002617</ECCENTRICITY><INCLINATION>51.8775</INCLINATION><RA_OF_ASC_NODE>167.7236</RA_OF_ASC_NODE><ARG_OF_PERICENTER>221.0885</ARG_OF_PERICENTER><MEAN_ANOMALY>138.9904</MEAN_ANOMALY></meanElements><tleParameters><EPHEMERIS_TYPE>0</EPHEMERIS_TYPE><CLASSIFICATION_TYPE>U</CLASSIFICATION_TYPE><NORAD_CAT_ID>64508</NORAD_CAT_ID><ELEMENT_SET_NO>999</ELEMENT_SET_NO><REV_AT_EPOCH>598</REV_AT_EPOCH><BSTAR>.75181E-3</BSTAR><MEAN_MOTION_DOT>.26791E-3</MEAN_MOTION_DOT><MEAN_MOTION_DDOT>0</MEAN_MOTION_DDOT></tleParameters></data></segment></body></omm>
<omm id="CCSDS_OMM_VERS" version="2.0">
<header><CREATION_DATE/><ORIGINATOR/></header><body><segment><metadata><OBJECT_NAME>KUIPER-00049</OBJECT_NAME><OBJECT_ID>2025-134K</OBJECT_ID><CENTER_NAME>EARTH</CENTER_NAME><REF_FRAME>TEME</REF_FRAME><TIME_SYSTEM>UTC</TIME_SYSTEM><MEAN_ELEMENT_THEORY>SGP4</MEAN_ELEMENT_THEORY></metadata><data><meanElements><EPOCH>2025-07-27T04:12:23.140512</EPOCH><MEAN_MOTION>15.35411310</MEAN_MOTION><ECCENTRICITY>.0006585</ECCENTRICITY><INCLINATION>51.8707</INCLINATION><RA_OF_ASC_NODE>168.4726</RA_OF_ASC_NODE><ARG_OF_PERICENTER>228.1676</ARG_OF_PERICENTER><MEAN_ANOMALY>131.8748</MEAN_ANOMALY></meanElements><tleParameters><EPHEMERIS_TYPE>0</EPHEMERIS_TYPE><CLASSIFICATION_TYPE>U</CLASSIFICATION_TYPE><NORAD_CAT_ID>64509</NORAD_CAT_ID><ELEMENT_SET_NO>999</ELEMENT_SET_NO><REV_AT_EPOCH>640</REV_AT_EPOCH><BSTAR>.67416E-3</BSTAR><MEAN_MOTION_DOT>.2325E-3</MEAN_MOTION_DOT><MEAN_MOTION_DDOT>0</MEAN_MOTION_DDOT></tleParameters></data></segment></body></omm>
<omm id="CCSDS_OMM_VERS" version="2.0">
<header><CREATION_DATE/><ORIGINATOR/></header><body><segment><metadata><OBJECT_NAME>KUIPER-00050</OBJECT_NAME><OBJECT_ID>2025-134L</OBJECT_ID><CENTER_NAME>EARTH</CENTER_NAME><REF_FRAME>TEME</REF_FRAME><TIME_SYSTEM>UTC</TIME_SYSTEM><MEAN_ELEMENT_THEORY>SGP4</MEAN_ELEMENT_THEORY></metadata><data><meanElements><EPOCH>2025-07-27T10:32:25.920096</EPOCH><MEAN_MOTION>15.35025592</MEAN_MOTION><ECCENTRICITY>.0007007</ECCENTRICITY><INCLINATION>51.8720</INCLINATION><RA_OF_ASC_NODE>167.2417</RA_OF_ASC_NODE><ARG_OF_PERICENTER>224.6278</ARG_OF_PERICENTER><MEAN_ANOMALY>135.4144</MEAN_ANOMALY></meanElements><tleParameters><EPHEMERIS_TYPE>0</EPHEMERIS_TYPE><CLASSIFICATION_TYPE>U</CLASSIFICATION_TYPE><NORAD_CAT_ID>64510</NORAD_CAT_ID><ELEMENT_SET_NO>999</ELEMENT_SET_NO><REV_AT_EPOCH>600</REV_AT_EPOCH><BSTAR>.44954E-3</BSTAR><MEAN_MOTION_DOT>.15168E-3</MEAN_MOTION_DOT><MEAN_MOTION_DDOT>0</MEAN_MOTION_DDOT></tleParameters></data></segment></body></omm>
<omm id="CCSDS_OMM_VERS" version="2.0">
<header><CREATION_DATE/><ORIGINATOR/></header><body><segment><metadata><OBJECT_NAME>KUIPER-00051</OBJECT_NAME><OBJECT_ID>2025-134M</OBJECT_ID><CENTER_NAME>EARTH</CENTER_NAME><REF_FRAME>TEME</REF_FRAME><TIME_SYSTEM>UTC</TIME_SYSTEM><MEAN_ELEMENT_THEORY>SGP4</MEAN_ELEMENT_THEORY></metadata><data><meanElements><EPOCH>2025-07-27T11:51:57.281472</EPOCH><MEAN_MOTION>15.35547569</MEAN_MOTION><ECCENTRICITY>.0005116</ECCENTRICITY><INCLINATION>51.8730</INCLINATION><RA_OF_ASC_NODE>166.8674</RA_OF_ASC_NODE><ARG_OF_PERICENTER>221.0073</ARG_OF_PERICENTER><MEAN_ANOMALY>139.0529</MEAN_ANOMALY></meanElements><tleParameters><EPHEMERIS_TYPE>0</EPHEMERIS_TYPE><CLASSIFICATION_TYPE>U</CLASSIFICATION_TYPE><NORAD_CAT_ID>64511</NORAD_CAT_ID><ELEMENT_SET_NO>999</ELEMENT_SET_NO><REV_AT_EPOCH>639</REV_AT_EPOCH><BSTAR>.76619E-3</BSTAR><MEAN_MOTION_DOT>.26598E-3</MEAN_MOTION_DOT><MEAN_MOTION_DDOT>0</MEAN_MOTION_DDOT></tleParameters></data></segment></body></omm>
<omm id="CCSDS_OMM_VERS" version="2.0">
<header><CREATION_DATE/><ORIGINATOR/></header><body><segment><metadata><OBJECT_NAME>KUIPER-00052</OBJECT_NAME><OBJECT_ID>2025-134N</OBJECT_ID><CENTER_NAME>EARTH</CENTER_NAME><REF_FRAME>TEME</REF_FRAME><TIME_SYSTEM>UTC</TIME_SYSTEM><MEAN_ELEMENT_THEORY>SGP4</MEAN_ELEMENT_THEORY></metadata><data><meanElements><EPOCH>2025-07-27T06:00:02.000160</EPOCH><MEAN_MOTION>15.40086472</MEAN_MOTION><ECCENTRICITY>.0002609</ECCENTRICITY><INCLINATION>51.8754</INCLINATION><RA_OF_ASC_NODE>167.6563</RA_OF_ASC_NODE><ARG_OF_PERICENTER>243.6425</ARG_OF_PERICENTER><MEAN_ANOMALY>38.5247</MEAN_ANOMALY></meanElements><tleParameters><EPHEMERIS_TYPE>0</EPHEMERIS_TYPE><CLASSIFICATION_TYPE>U</CLASSIFICATION_TYPE><NORAD_CAT_ID>64512</NORAD_CAT_ID><ELEMENT_SET_NO>999</ELEMENT_SET_NO><REV_AT_EPOCH>597</REV_AT_EPOCH><BSTAR>.25701E-2</BSTAR><MEAN_MOTION_DOT>.105556E-2</MEAN_MOTION_DOT><MEAN_MOTION_DDOT>0</MEAN_MOTION_DDOT></tleParameters></data></segment></body></omm>

</ndm>
