KUIPER-00044            
1 64505U 25134F   25208.58335648 -.00655459  00000+0 -34106-1 0  9994
2 64505  51.8713 167.5259 0011061 237.6770  74.2862 15.18115475  5993
KUIPER-00046            
1 64506U 25134G   25208.25002315 -.00497735  00000+0 -19347-1 0  9992
2 64506  51.8722 168.4796 0007552 246.3060 343.6254 15.27676644  5964
KUIPER-00047            
1 64507U 25134H   25208.19813734  .00026956  00000+0  80759-3 0  9999
2 64507  51.8629 168.5934 0009949 247.7596 112.2335 15.34269644  5963
KUIPER-00048            
1 64508U 25134J   25208.28509998  .00026791  00000+0  75181-3 0  9994
2 64508  51.8775 167.7236 0002617 221.0885 138.9904 15.36370248  5987
KUIPER-00049            
1 64509U 25134K   25208.17526783  .00023250  00000+0  67416-3 0  9993
2 64509  51.8707 168.4726 0006585 228.1676 131.8748 15.35411310  6400
KUIPER-00050            
1 64510U 25134L   25208.43918889  .00015168  00000+0  44954-3 0  9997
2 64510  51.8720 167.2417 0007007 224.6278 135.4144 15.35025592  6009
KUIPER-00051            
1 64511U 25134M   25208.49441298  .00026598  00000+0  76619-3 0  9991
2 64511  51.8730 166.8674 0005116 221.0073 139.0529 15.35547569  6396
KUIPER-00052            
1 64512U 25134N   25208.25002315  .00105556  00000+0  25701-2 0  9996
2 64512  51.8754 167.6563 0002609 243.6425  38.5247 15.40086472  5974
